IRIDIUM 159             
1 43578U 18061K   24056.47229261  .00000045  00000+0  89382-5 0  9996
2 43578  86.3940  48.8765 0002226  85.7722 274.3728 14.34216246292593
IRIDIUM 180             
1 43922U 19002A   24056.54156208  .00000160  00000+0  50147-4 0  9997
2 43922  86.4024 345.7571 0002215  83.8522 276.2926 14.34217414268254
IRIDIUM 176             
1 43923U 19002B   24055.54384586  .00001854  00000+0  29003-3 0  9996
2 43923  86.6152 346.2020 0002618  89.2732 270.8785 14.72259480275122
IRIDIUM 168             
1 43924U 19002C   24056.18637551  .00000060  00000+0  14460-4 0  9991
2 43924  86.4024 345.9584 0002201  82.9016 277.2430 14.34218123268142
IRIDIUM 173             
1 43925U 19002D   24055.54576378  .00000499  00000+0  17124-3 0  9995
2 43925  86.4028 346.1488 0002100  85.0506 275.0929 14.34215729268035
IRIDIUM 169             
1 43926U 19002E   24056.16678457  .00000599  00000+0  18938-3 0  9991
2 43926  86.4258  17.4797 0001017 179.9878 180.1321 14.38602508269024
IRIDIUM 172             
1 43927U 19002F   24056.23711712  .00000257  00000+0  84643-4 0  9990
2 43927  86.4024 345.8664 0002273  84.5813 275.5642 14.34218844268141
IRIDIUM 175             
1 43928U 19002G   24056.48951125  .00001682  00000+0  26284-3 0  9991
2 43928  86.1544 325.3317 0002284  84.8598 275.2880 14.72249242275258
